[{"OBJECT_NAME":"HELIOS 1B","OBJECT_ID":"1999-064A","EPOCH":"2026-03-17T04:18:28.845792","MEAN_MOTION":14.87728743,"ECCENTRICITY":0.0002294,"INCLINATION":98.1688,"RA_OF_ASC_NODE":338.6427,"ARG_OF_PERICENTER":64.3759,"MEAN_ANOMALY":295.7694,"EPHEMERIS_TYPE":0,"CLASSIFICATION_TYPE":"U","NORAD_CAT_ID":25977,"ELEMENT_SET_NO":999,"REV_AT_EPOCH":68637,"BSTAR":0.00017784566,"MEAN_MOTION_DOT":1.563e-5,"MEAN_MOTION_DDOT":0},{"OBJECT_NAME":"TERRA","OBJECT_ID":"1999-068A","EPOCH":"2026-03-17T06:00:22.432896","MEAN_MOTION":14.61022899,"ECCENTRICITY":0.00031456,"INCLINATION":97.9577,"RA_OF_ASC_NODE":129.3956,"ARG_OF_PERICENTER":135.0358,"MEAN_ANOMALY":294.1133,"EPHEMERIS_TYPE":0,"CLASSIFICATION_TYPE":"U","NORAD_CAT_ID":25994,"ELEMENT_SET_NO":999,"REV_AT_EPOCH":39618,"BSTAR":9.2666896e-5,"MEAN_MOTION_DOT":4.1e-6,"MEAN_MOTION_DDOT":0},{"OBJECT_NAME":"SL-16 R/B","OBJECT_ID":"2000-006B","EPOCH":"2026-03-17T06:56:58.074720","MEAN_MOTION":14.15824068,"ECCENTRICITY":0.00163474,"INCLINATION":71.0003,"RA_OF_ASC_NODE":81.8558,"ARG_OF_PERICENTER":178.4892,"MEAN_ANOMALY":181.6284,"EPHEMERIS_TYPE":0,"CLASSIFICATION_TYPE":"U","NORAD_CAT_ID":26070,"ELEMENT_SET_NO":999,"REV_AT_EPOCH":34963,"BSTAR":-6.7137477e-5,"MEAN_MOTION_DOT":-1.8e-6,"MEAN_MOTION_DDOT":0},{"OBJECT_NAME":"TITAN 4B R/B","OBJECT_ID":"2000-047B","EPOCH":"2026-03-17T05:59:38.607360","MEAN_MOTION":15.09639236,"ECCENTRICITY":0.00388428,"INCLINATION":67.9911,"RA_OF_ASC_NODE":19.25,"ARG_OF_PERICENTER":26.4029,"MEAN_ANOMALY":333.9088,"EPHEMERIS_TYPE":0,"CLASSIFICATION_TYPE":"U","NORAD_CAT_ID":26474,"ELEMENT_SET_NO":999,"REV_AT_EPOCH":39405,"BSTAR":0.00022536454,"MEAN_MOTION_DOT":3.562e-5,"MEAN_MOTION_DDOT":0},{"OBJECT_NAME":"ENVISAT","OBJECT_ID":"2002-009A","EPOCH":"2026-03-17T02:40:44.359392","MEAN_MOTION":14.39039634,"ECCENTRICITY":0.00013024,"INCLINATION":98.3739,"RA_OF_ASC_NODE":29.5327,"ARG_OF_PERICENTER":82.5907,"MEAN_ANOMALY":288.0457,"EPHEMERIS_TYPE":0,"CLASSIFICATION_TYPE":"U","NORAD_CAT_ID":27386,"ELEMENT_SET_NO":999,"REV_AT_EPOCH":26024,"BSTAR":4.5616267e-5,"MEAN_MOTION_DOT":9.8e-7,"MEAN_MOTION_DDOT":0},{"OBJECT_NAME":"IDEFIX & ARIANE 42P R/B","OBJECT_ID":"2002-021B","EPOCH":"2026-03-17T02:48:39.611232","MEAN_MOTION":14.3103133,"ECCENTRICITY":0.0012015,"INCLINATION":98.5877,"RA_OF_ASC_NODE":14.6349,"ARG_OF_PERICENTER":160.2911,"MEAN_ANOMALY":199.8738,"EPHEMERIS_TYPE":0,"CLASSIFICATION_TYPE":"U","NORAD_CAT_ID":27422,"ELEMENT_SET_NO":999,"REV_AT_EPOCH":24508,"BSTAR":0.00010877416,"MEAN_MOTION_DOT":2.43e-6,"MEAN_MOTION_DDOT":0},{"OBJECT_NAME":"AQUA","OBJECT_ID":"2002-022A","EPOCH":"2026-03-17T06:57:24.513984","MEAN_MOTION":14.61995279,"ECCENTRICITY":6.855e-5,"INCLINATION":98.4187,"RA_OF_ASC_NODE":43.7939,"ARG_OF_PERICENTER":107.5024,"MEAN_ANOMALY":357.8777,"EPHEMERIS_TYPE":0,"CLASSIFICATION_TYPE":"U","NORAD_CAT_ID":27424,"ELEMENT_SET_NO":999,"REV_AT_EPOCH":26984,"BSTAR":0.00019637627,"MEAN_MOTION_DOT":9.35e-6,"MEAN_MOTION_DDOT":0},{"OBJECT_NAME":"CZ-4B R/B","OBJECT_ID":"2002-024C","EPOCH":"2026-03-17T03:29:39.077088","MEAN_MOTION":14.14548891,"ECCENTRICITY":0.00501176,"INCLINATION":98.8822,"RA_OF_ASC_NODE":129.5141,"ARG_OF_PERICENTER":3.1185,"MEAN_ANOMALY":55.972,"EPHEMERIS_TYPE":0,"CLASSIFICATION_TYPE":"U","NORAD_CAT_ID":27432,"ELEMENT_SET_NO":999,"REV_AT_EPOCH":23029,"BSTAR":3.9642666e-5,"MEAN_MOTION_DOT":3.2e-7,"MEAN_MOTION_DDOT":0},{"OBJECT_NAME":"MIDORI II (ADEOS-II)","OBJECT_ID":"2002-056A","EPOCH":"2026-03-17T03:42:01.860480","MEAN_MOTION":14.29290925,"ECCENTRICITY":0.0001306,"INCLINATION":98.778,"RA_OF_ASC_NODE":34.6839,"ARG_OF_PERICENTER":34.0017,"MEAN_ANOMALY":326.1248,"EPHEMERIS_TYPE":0,"CLASSIFICATION_TYPE":"U","NORAD_CAT_ID":27597,"ELEMENT_SET_NO":999,"REV_AT_EPOCH":21136,"BSTAR":0.00012288664,"MEAN_MOTION_DOT":2.67e-6,"MEAN_MOTION_DDOT":0},{"OBJECT_NAME":"H-2A R/B","OBJECT_ID":"2002-056E","EPOCH":"2026-03-17T03:57:24.806880","MEAN_MOTION":14.33765609,"ECCENTRICITY":0.00709247,"INCLINATION":98.3215,"RA_OF_ASC_NODE":36.2464,"ARG_OF_PERICENTER":138.5664,"MEAN_ANOMALY":232.7909,"EPHEMERIS_TYPE":0,"CLASSIFICATION_TYPE":"U","NORAD_CAT_ID":27601,"ELEMENT_SET_NO":999,"REV_AT_EPOCH":21518,"BSTAR":9.1635107e-5,"MEAN_MOTION_DOT":2.21e-6,"MEAN_MOTION_DDOT":0},{"OBJECT_NAME":"CZ-4B R/B","OBJECT_ID":"2003-049C","EPOCH":"2026-03-17T05:21:10.803744","MEAN_MOTION":14.55027319,"ECCENTRICITY":0.00475852,"INCLINATION":98.6884,"RA_OF_ASC_NODE":71.4238,"ARG_OF_PERICENTER":207.5087,"MEAN_ANOMALY":152.359,"EPHEMERIS_TYPE":0,"CLASSIFICATION_TYPE":"U","NORAD_CAT_ID":28059,"ELEMENT_SET_NO":999,"REV_AT_EPOCH":18769,"BSTAR":8.6074063e-5,"MEAN_MOTION_DOT":3.25e-6,"MEAN_MOTION_DDOT":0},{"OBJECT_NAME":"CZ-2C R/B","OBJECT_ID":"2004-012C","EPOCH":"2026-03-17T03:41:57.592320","MEAN_MOTION":15.65432625,"ECCENTRICITY":0.00129377,"INCLINATION":97.7217,"RA_OF_ASC_NODE":142.1581,"ARG_OF_PERICENTER":278.7323,"MEAN_ANOMALY":81.247,"EPHEMERIS_TYPE":0,"CLASSIFICATION_TYPE":"U","NORAD_CAT_ID":28222,"ELEMENT_SET_NO":999,"REV_AT_EPOCH":20544,"BSTAR":0.00043723865,"MEAN_MOTION_DOT":0.00043829,"MEAN_MOTION_DDOT":0},{"OBJECT_NAME":"SL-16 R/B","OBJECT_ID":"2004-021B","EPOCH":"2026-03-17T02:15:19.154880","MEAN_MOTION":14.14594825,"ECCENTRICITY":0.00044446,"INCLINATION":70.9997,"RA_OF_ASC_NODE":216.9533,"ARG_OF_PERICENTER":359.7231,"MEAN_ANOMALY":0.3888,"EPHEMERIS_TYPE":0,"CLASSIFICATION_TYPE":"U","NORAD_CAT_ID":28353,"ELEMENT_SET_NO":999,"REV_AT_EPOCH":12388,"BSTAR":-0.00011723103,"MEAN_MOTION_DOT":-2.73e-6,"MEAN_MOTION_DDOT":0},{"OBJECT_NAME":"CZ-4B R/B","OBJECT_ID":"2004-035C","EPOCH":"2026-03-17T02:34:43.556448","MEAN_MOTION":15.29198366,"ECCENTRICITY":0.00302745,"INCLINATION":97.3489,"RA_OF_ASC_NODE":110.2614,"ARG_OF_PERICENTER":304.0396,"MEAN_ANOMALY":55.7971,"EPHEMERIS_TYPE":0,"CLASSIFICATION_TYPE":"U","NORAD_CAT_ID":28415,"ELEMENT_SET_NO":999,"REV_AT_EPOCH":18104,"BSTAR":0.00022824113,"MEAN_MOTION_DOT":6.478e-5,"MEAN_MOTION_DDOT":0},{"OBJECT_NAME":"CZ-2C R/B","OBJECT_ID":"2004-046B","EPOCH":"2026-03-17T04:46:01.435008","MEAN_MOTION":14.26994751,"ECCENTRICITY":0.01402936,"INCLINATION":98.1981,"RA_OF_ASC_NODE":350.715,"ARG_OF_PERICENTER":132.3349,"MEAN_ANOMALY":228.9818,"EPHEMERIS_TYPE":0,"CLASSIFICATION_TYPE":"U","NORAD_CAT_ID":28480,"ELEMENT_SET_NO":999,"REV_AT_EPOCH":10957,"BSTAR":6.0184164e-5,"MEAN_MOTION_DOT":1.23e-6,"MEAN_MOTION_DDOT":0},{"OBJECT_NAME":"ARIANE 5 R/B","OBJECT_ID":"2004-049H","EPOCH":"2026-03-17T04:16:07.509216","MEAN_MOTION":14.85279591,"ECCENTRICITY":0.00834129,"INCLINATION":98.2639,"RA_OF_ASC_NODE":244.9158,"ARG_OF_PERICENTER":327.5301,"MEAN_ANOMALY":32.0797,"EPHEMERIS_TYPE":0,"CLASSIFICATION_TYPE":"U","NORAD_CAT_ID":28499,"ELEMENT_SET_NO":999,"REV_AT_EPOCH":14690,"BSTAR":8.5250027e-5,"MEAN_MOTION_DOT":7.13e-6,"MEAN_MOTION_DDOT":0},{"OBJECT_NAME":"CZ-2D R/B","OBJECT_ID":"2005-024B","EPOCH":"2026-03-17T00:28:09.754176","MEAN_MOTION":15.60834466,"ECCENTRICITY":0.00045837,"INCLINATION":97.3588,"RA_OF_ASC_NODE":91.438,"ARG_OF_PERICENTER":26.9008,"MEAN_ANOMALY":333.2486,"EPHEMERIS_TYPE":0,"CLASSIFICATION_TYPE":"U","NORAD_CAT_ID":28738,"ELEMENT_SET_NO":999,"REV_AT_EPOCH":14092,"BSTAR":0.00045627787,"MEAN_MOTION_DOT":0.00038065,"MEAN_MOTION_DDOT":0}]
